[Satellite]
VERSION=1.1
NAME=MOLNIYA 1-69
NICKNAME=MOLNIYA 1-69
TLE1=1 17078U 86089A   18019.23618692  .00000441  00000-0 -26162-1 0  9998
TLE2=2 17078  64.3773 354.3402 6993616 272.5496  55.1489  2.00554200228520
